CTC1_L_00256016-03
1 17415U 23309SA  26070.40834491  .00000000  00000+0  00000-0 0  9992
2 17415 100.0000 180.0000 0000000   0.0000   0.0000 15.48880433    15
CTC1_L_00256016-04
1 17416U 23453RP  26070.40834491  .00000000  00000+0  00000-0 0  9993
2 17416 100.0000 180.0000 0000000   0.0000  90.0000 15.48880433    15
CTC1_L_00256017-01
1 17417U 25543IB  26070.40834491  .00000000  00000+0  00000-0 0  9996
2 17417 100.0000 192.0000 0000000   0.0000 192.0000 15.48880433    12
CTC1_L_00256017-02
1 17418U 25500NQ  26070.40834491  .00000000  00000+0  00000-0 0  9990
2 17418 100.0000 192.0000 0000000   0.0000 282.0000 15.48880433    13
CTC1_L_00256017-03
1 17419U 26341EZ  26070.40834491  .00000000  00000+0  00000-0 0  9995
2 17419 100.0000 192.0000 0000000   0.0000  12.0000 15.48880433    15
CTC1_L_00256017-04
1 17420U 26713MX  26070.40834491  .00000000  00000+0  00000-0 0  9990
2 17420 100.0000 192.0000 0000000   0.0000 102.0000 15.48880433    17
CTC1_L_00256018-01
1 17421U 25047MA  26070.40834491  .00000000  00000+0  00000-0 0  9990
2 17421 100.0000 204.0000 0000000   0.0000 204.0000 15.48880433    15
CTC1_L_00256018-02
1 17422U 26976TU  26070.40834491  .00000000  00000+0  00000-0 0  9993
2 17422 100.0000 204.0000 0000000   0.0000 294.0000 15.48880433    15
CTC1_L_00256018-03
1 17423U 23619EC  26070.40834491  .00000000  00000+0  00000-0 0  9995
2 17423 100.0000 204.0000 0000000   0.0000  24.0000 15.48880433    17
CTC1_L_00256018-04
1 17424U 25680AO  26070.40834491  .00000000  00000+0  00000-0 0  9996
2 17424 100.0000 204.0000 0000000   0.0000 114.0000 15.48880433    18
CTC1_L_00256019-01
1 17425U 24116FQ  26070.40834491  .00000000  00000+0  00000-0 0  9990
2 17425 100.0000 216.0000 0000000   0.0000 216.0000 15.48880433    15
CTC1_L_00256019-02
1 17426U 24432SF  26070.40834491  .00000000  00000+0  00000-0 0  9992
2 17426 100.0000 216.0000 0000000   0.0000 306.0000 15.48880433    16
CTC1_L_00256019-03
1 17427U 24333QD  26070.40834491  .00000000  00000+0  00000-0 0  9993
2 17427 100.0000 216.0000 0000000   0.0000  36.0000 15.48880433    17
CTC1_L_00256019-04
1 17428U 24150NV  26070.40834491  .00000000  00000+0  00000-0 0  9991
2 17428 100.0000 216.0000 0000000   0.0000 126.0000 15.48880433    18
CTC1_L_00256020-01
1 17429U 23604DI  26070.40834491  .00000000  00000+0  00000-0 0  9995
2 17429 100.0000 228.0000 0000000   0.0000 228.0000 15.48880433    15
CTC1_L_00256020-02
1 17430U 26174TN  26070.40834491  .00000000  00000+0  00000-0 0  9992
2 17430 100.0000 228.0000 0000000   0.0000 318.0000 15.48880433    17
CTC1_L_00256020-03
1 17431U 22552K   26070.40834491  .00000000  00000+0  00000-0 0  9999
2 17431 100.0000 228.0000 0000000   0.0000  48.0000 15.48880433    18
CTC1_L_00256020-04
1 17432U 25012LD  26070.40834491  .00000000  00000+0  00000-0 0  9994
2 17432 100.0000 228.0000 0000000   0.0000 138.0000 15.48880433    19
CTC1_L_00256021-01
1 17433U 22463AX  26070.40834491  .00000000  00000+0  00000-0 0  9992
2 17433 100.0000 240.0000 0000000   0.0000 240.0000 15.48880433    18
CTC1_L_00256021-02
1 17434U 22897NF  26070.40834491  .00000000  00000+0  00000-0 0  9994
2 17434 100.0000 240.0000 0000000   0.0000 330.0000 15.48880433    19
CTC1_L_00256021-03
1 17435U 23696IA  26070.40834491  .00000000  00000+0  00000-0 0  9993
2 17435 100.0000 240.0000 0000000   0.0000  60.0000 15.48880433    10
CTC1_L_00256021-04
1 17436U 24058GX  26070.40834491  .00000000  00000+0  00000-0 0  9997
2 17436 100.0000 240.0000 0000000   0.0000 150.0000 15.48880433    11
CTC1_L_00256022-01
1 17437U 22293JB  26070.40834491  .00000000  00000+0  00000-0 0  9997
2 17437 100.0000 252.0000 0000000   0.0000 252.0000 15.48880433    18
CTC1_L_00256022-02
1 17438U 23196YX  26070.40834491  .00000000  00000+0  00000-0 0  9991
2 17438 100.0000 252.0000 0000000   0.0000 342.0000 15.48880433    19
CTC1_L_00256022-03
1 17439U 25007BK  26070.40834491  .00000000  00000+0  00000-0 0  9995
2 17439 100.0000 252.0000 0000000   0.0000  72.0000 15.48880433    10
CTC1_L_00256022-04
1 17440U 25360UP  26070.40834491  .00000000  00000+0  00000-0 0  9999
2 17440 100.0000 252.0000 0000000   0.0000 162.0000 15.48880433    12
CTC1_L_00256023-01
1 17441U 23326R   26070.40834491  .00000000  00000+0  00000-0 0  9990
2 17441 100.0000 264.0000 0000000   0.0000 264.0000 15.48880433    19
CTC1_L_00256023-02
1 17442U 25025WZ  26070.40834491  .00000000  00000+0  00000-0 0  9999
2 17442 100.0000 264.0000 0000000   0.0000 354.0000 15.48880433    10
CTC1_L_00256023-03
1 17443U 22732PS  26070.40834491  .00000000  00000+0  00000-0 0  9992
2 17443 100.0000 264.0000 0000000   0.0000  84.0000 15.48880433    11
CTC1_L_00256023-04
1 17444U 24160RR  26070.40834491  .00000000  00000+0  00000-0 0  9990
2 17444 100.0000 264.0000 0000000   0.0000 174.0000 15.48880433    12
CTC1_L_00256024-01
1 17445U 22633OA  26070.40834491  .00000000  00000+0  00000-0 0  9994
2 17445 100.0000 276.0000 0000000   0.0000 276.0000 15.48880433    19
CTC1_L_00256024-02
1 17446U 22322WB  26070.40834491  .00000000  00000+0  00000-0 0  9990
2 17446 100.0000 276.0000 0000000   0.0000   6.0000 15.48880433    11
CTC1_L_00256024-03
1 17447U 23922VT  26070.40834491  .00000000  00000+0  00000-0 0  9998
2 17447 100.0000 276.0000 0000000   0.0000  96.0000 15.48880433    11
CTC1_L_00256024-04
1 17448U 26384IQ  26070.40834491  .00000000  00000+0  00000-0 0  9994
2 17448 100.0000 276.0000 0000000   0.0000 186.0000 15.48880433    12
CTC1_L_00256025-01
1 17449U 25487ET  26070.40834491  .00000000  00000+0  00000-0 0  9998
2 17449 100.0000 288.0000 0000000   0.0000 288.0000 15.48880433    19
CTC1_L_00256025-02
1 17450U 25037OX  26070.40834491  .00000000  00000+0  00000-0 0  9991
2 17450 100.0000 288.0000 0000000   0.0000  18.0000 15.48880433    12
CTC1_L_00256025-03
1 17451U 24553PB  26070.40834491  .00000000  00000+0  00000-0 0  9994
2 17451 100.0000 288.0000 0000000   0.0000 108.0000 15.48880433    13
CTC1_L_00256025-04
1 17452U 25289BA  26070.40834491  .00000000  00000+0  00000-0 0  9992
2 17452 100.0000 288.0000 0000000   0.0000 198.0000 15.48880433    13
CTC1_L_00256026-01
1 17453U 22084GN  26070.40834491  .00000000  00000+0  00000-0 0  9993
2 17453 100.0000 300.0000 0000000   0.0000 300.0000 15.48880433    14
CTC1_L_00256026-02
1 17454U 23940YE  26070.40834491  .00000000  00000+0  00000-0 0  9996
2 17454 100.0000 300.0000 0000000   0.0000  30.0000 15.48880433    15
CTC1_L_00256026-03
1 17455U 24028PJ  26070.40834491  .00000000  00000+0  00000-0 0  9995
2 17455 100.0000 300.0000 0000000   0.0000 120.0000 15.48880433    16
CTC1_L_00256026-04
1 17456U 22267EQ  26070.40834491  .00000000  00000+0  00000-0 0  9999
2 17456 100.0000 300.0000 0000000   0.0000 210.0000 15.48880433    17
CTC1_L_00256027-01
1 17457U 26652IP  26070.40834491  .00000000  00000+0  00000-0 0  9992
2 17457 100.0000 312.0000 0000000   0.0000 312.0000 15.48880433    14
CTC1_L_00256027-02
1 17458U 25320TX  26070.40834491  .00000000  00000+0  00000-0 0  9994
2 17458 100.0000 312.0000 0000000   0.0000  42.0000 15.48880433    15
CTC1_L_00256027-03
1 17459U 23430VZ  26070.40834491  .00000000  00000+0  00000-0 0  9995
2 17459 100.0000 312.0000 0000000   0.0000 132.0000 15.48880433    16
CTC1_L_00256027-04
1 17460U 26883FS  26070.40834491  .00000000  00000+0  00000-0 0  9992
2 17460 100.0000 312.0000 0000000   0.0000 222.0000 15.48880433    18
CTC1_L_00256028-01
1 17461U 25893OQ  26070.40834491  .00000000  00000+0  00000-0 0  9993
2 17461 100.0000 324.0000 0000000   0.0000 324.0000 15.48880433    15
CTC1_L_00256028-02
1 17462U 24117KK  26070.40834491  .00000000  00000+0  00000-0 0  9992
2 17462 100.0000 324.0000 0000000   0.0000  54.0000 15.48880433    16
CTC1_L_00256028-03
1 17463U 22339AI  26070.40834491  .00000000  00000+0  00000-0 0  9997
2 17463 100.0000 324.0000 0000000   0.0000 144.0000 15.48880433    17
CTC1_L_00256028-04
1 17464U 24348FK  26070.40834491  .00000000  00000+0  00000-0 0  9990
2 17464 100.0000 324.0000 0000000   0.0000 234.0000 15.48880433    18
CTC1_L_00256029-01
1 17465U 26124RW  26070.40834491  .00000000  00000+0  00000-0 0  9995
2 17465 100.0000 336.0000 0000000   0.0000 336.0000 15.48880433    15
CTC1_L_00256029-02
1 17466U 25507TY  26070.40834491  .00000000  00000+0  00000-0 0  9990
2 17466 100.0000 336.0000 0000000   0.0000  66.0000 15.48880433    16
CTC1_L_00256029-03
1 17467U 26786XR  26070.40834491  .00000000  00000+0  00000-0 0  9991
2 17467 100.0000 336.0000 0000000   0.0000 156.0000 15.48880433    17
CTC1_L_00256029-04
1 17468U 25956TP  26070.40834491  .00000000  00000+0  00000-0 0  9990
2 17468 100.0000 336.0000 0000000   0.0000 246.0000 15.48880433    18
CTC1_L_00256030-01
1 17469U 22972T   26070.40834491  .00000000  00000+0  00000-0 0  9996
2 17469 100.0000 348.0000 0000000   0.0000 348.0000 15.48880433    15
CTC1_L_00256030-02
1 17470U 26331WY  26070.40834491  .00000000  00000+0  00000-0 0  9991
2 17470 100.0000 348.0000 0000000   0.0000  78.0000 15.48880433    17
CTC1_L_00256030-03
1 17471U 25245TC  26070.40834491  .00000000  00000+0  00000-0 0  9995
2 17471 100.0000 348.0000 0000000   0.0000 168.0000 15.48880433    18
CTC1_L_00256030-04
1 17472U 24231CK  26070.40834491  .00000000  00000+0  00000-0 0  9990
2 17472 100.0000 348.0000 0000000   0.0000 258.0000 15.48880433    19
